{
 "generated_at": "2026-06-16T10:08:45Z",
 "sources": [
  {
   "name": "CelesTrak",
   "url": "https://celestrak.org/NORAD/elements/",
   "license": "frei verfügbar; Attribution. Ursprünglich USSPACECOM/Space-Track."
  },
  {
   "name": "GCAT (J. McDowell, planet4589.org)",
   "url": "https://planet4589.org/space/gcat/",
   "license": "CC-BY 4.0"
  }
 ],
 "satellites": [
  {
   "norad": 58648,
   "name": "TIANMU-1 14",
   "intl": "2023-205D",
   "group": "weather",
   "gcat": {
    "class": "B",
    "category": "MET",
    "owner": "TIANMU",
    "state": "CN"
   },
   "omm": {
    "OBJECT_NAME": "TIANMU-1 14",
    "OBJECT_ID": "2023-205D",
    "EPOCH": "2026-06-16T04:32:32.877024",
    "MEAN_MOTION": 15.26850007,
    "ECCENTRICITY": 0.0006996,
    "INCLINATION": 97.3392,
    "RA_OF_ASC_NODE": 187.9727,
    "ARG_OF_PERICENTER": 349.4406,
    "MEAN_ANOMALY": 10.6685,
    "EPHEMERIS_TYPE": 0,
    "CLASSIFICATION_TYPE": "U",
    "NORAD_CAT_ID": 58648,
    "ELEMENT_SET_NO": 999,
    "REV_AT_EPOCH": 13735,
    "BSTAR": 0.00018685,
    "MEAN_MOTION_DOT": 0.00004859,
    "MEAN_MOTION_DDOT": 0
   }
  },
  {
   "norad": 58700,
   "name": "TIANMU-1 15",
   "intl": "2024-004A",
   "group": "weather",
   "gcat": {
    "class": "B",
    "category": "MET",
    "owner": "TIANMU",
    "state": "CN"
   },
   "omm": {
    "OBJECT_NAME": "TIANMU-1 15",
    "OBJECT_ID": "2024-004A",
    "EPOCH": "2026-06-16T04:20:57.744096",
    "MEAN_MOTION": 15.27015263,
    "ECCENTRICITY": 0.0006819,
    "INCLINATION": 97.4662,
    "RA_OF_ASC_NODE": 353.3712,
    "ARG_OF_PERICENTER": 5.9769,
    "MEAN_ANOMALY": 354.1549,
    "EPHEMERIS_TYPE": 0,
    "CLASSIFICATION_TYPE": "U",
    "NORAD_CAT_ID": 58700,
    "ELEMENT_SET_NO": 999,
    "REV_AT_EPOCH": 13562,
    "BSTAR": 0.00018399,
    "MEAN_MOTION_DOT": 0.00004805,
    "MEAN_MOTION_DDOT": 0
   }
  },
  {
   "norad": 58701,
   "name": "TIANMU-1 16",
   "intl": "2024-004B",
   "group": "weather",
   "gcat": {
    "class": "B",
    "category": "MET",
    "owner": "TIANMU",
    "state": "CN"
   },
   "omm": {
    "OBJECT_NAME": "TIANMU-1 16",
    "OBJECT_ID": "2024-004B",
    "EPOCH": "2026-06-16T04:05:12.134976",
    "MEAN_MOTION": 15.26740073,
    "ECCENTRICITY": 0.0005948,
    "INCLINATION": 97.4608,
    "RA_OF_ASC_NODE": 352.5983,
    "ARG_OF_PERICENTER": 11.2955,
    "MEAN_ANOMALY": 348.8416,
    "EPHEMERIS_TYPE": 0,
    "CLASSIFICATION_TYPE": "U",
    "NORAD_CAT_ID": 58701,
    "ELEMENT_SET_NO": 999,
    "REV_AT_EPOCH": 13562,
    "BSTAR": 0.00018211,
    "MEAN_MOTION_DOT": 0.00004715,
    "MEAN_MOTION_DDOT": 0
   }
  },
  {
   "norad": 58702,
   "name": "TIANMU-1 17",
   "intl": "2024-004C",
   "group": "weather",
   "gcat": {
    "class": "B",
    "category": "MET",
    "owner": "TIANMU",
    "state": "CN"
   },
   "omm": {
    "OBJECT_NAME": "TIANMU-1 17",
    "OBJECT_ID": "2024-004C",
    "EPOCH": "2026-06-16T05:18:38.011392",
    "MEAN_MOTION": 15.26739513,
    "ECCENTRICITY": 0.000563,
    "INCLINATION": 97.4637,
    "RA_OF_ASC_NODE": 353.1338,
    "ARG_OF_PERICENTER": 17.6363,
    "MEAN_ANOMALY": 342.507,
    "EPHEMERIS_TYPE": 0,
    "CLASSIFICATION_TYPE": "U",
    "NORAD_CAT_ID": 58702,
    "ELEMENT_SET_NO": 999,
    "REV_AT_EPOCH": 13562,
    "BSTAR": 0.00017558,
    "MEAN_MOTION_DOT": 0.00004543,
    "MEAN_MOTION_DDOT": 0
   }
  },
  {
   "norad": 58703,
   "name": "TIANMU-1 18",
   "intl": "2024-004D",
   "group": "weather",
   "gcat": {
    "class": "B",
    "category": "MET",
    "owner": "TIANMU",
    "state": "CN"
   },
   "omm": {
    "OBJECT_NAME": "TIANMU-1 18",
    "OBJECT_ID": "2024-004D",
    "EPOCH": "2026-06-16T04:44:52.173312",
    "MEAN_MOTION": 15.26997033,
    "ECCENTRICITY": 0.000414,
    "INCLINATION": 97.4655,
    "RA_OF_ASC_NODE": 353.3652,
    "ARG_OF_PERICENTER": 18.7357,
    "MEAN_ANOMALY": 341.4033,
    "EPHEMERIS_TYPE": 0,
    "CLASSIFICATION_TYPE": "U",
    "NORAD_CAT_ID": 58703,
    "ELEMENT_SET_NO": 999,
    "REV_AT_EPOCH": 13562,
    "BSTAR": 0.00017458,
    "MEAN_MOTION_DOT": 0.00004551,
    "MEAN_MOTION_DDOT": 0
   }
  },
  {
   "norad": 58660,
   "name": "TIANMU-1 19",
   "intl": "2023-208A",
   "group": "weather",
   "gcat": {
    "class": "B",
    "category": "MET",
    "owner": "TIANMU",
    "state": "CN"
   },
   "omm": {
    "OBJECT_NAME": "TIANMU-1 19",
    "OBJECT_ID": "2023-208A",
    "EPOCH": "2026-06-16T04:13:50.460672",
    "MEAN_MOTION": 15.31561388,
    "ECCENTRICITY": 0.0003903,
    "INCLINATION": 97.4509,
    "RA_OF_ASC_NODE": 283.4704,
    "ARG_OF_PERICENTER": 332.7564,
    "MEAN_ANOMALY": 27.3472,
    "EPHEMERIS_TYPE": 0,
    "CLASSIFICATION_TYPE": "U",
    "NORAD_CAT_ID": 58660,
    "ELEMENT_SET_NO": 999,
    "REV_AT_EPOCH": 13717,
    "BSTAR": 0.00022458,
    "MEAN_MOTION_DOT": 0.00006767,
    "MEAN_MOTION_DDOT": 0
   }
  },
  {
   "norad": 58661,
   "name": "TIANMU-1 20",
   "intl": "2023-208B",
   "group": "weather",
   "gcat": {
    "class": "B",
    "category": "MET",
    "owner": "TIANMU",
    "state": "CN"
   },
   "omm": {
    "OBJECT_NAME": "TIANMU-1 20",
    "OBJECT_ID": "2023-208B",
    "EPOCH": "2026-06-16T05:09:23.822784",
    "MEAN_MOTION": 15.32752498,
    "ECCENTRICITY": 0.0006111,
    "INCLINATION": 97.4452,
    "RA_OF_ASC_NODE": 284.1436,
    "ARG_OF_PERICENTER": 338.066,
    "MEAN_ANOMALY": 22.032,
    "EPHEMERIS_TYPE": 0,
    "CLASSIFICATION_TYPE": "U",
    "NORAD_CAT_ID": 58661,
    "ELEMENT_SET_NO": 999,
    "REV_AT_EPOCH": 13727,
    "BSTAR": 0.0002135,
    "MEAN_MOTION_DOT": 0.00006676,
    "MEAN_MOTION_DDOT": 0
   }
  },
  {
   "norad": 58662,
   "name": "TIANMU-1 21",
   "intl": "2023-208C",
   "group": "weather",
   "gcat": {
    "class": "B",
    "category": "MET",
    "owner": "TIANMU",
    "state": "CN"
   },
   "omm": {
    "OBJECT_NAME": "TIANMU-1 21",
    "OBJECT_ID": "2023-208C",
    "EPOCH": "2026-06-16T03:20:51.008064",
    "MEAN_MOTION": 15.35061665,
    "ECCENTRICITY": 0.0006027,
    "INCLINATION": 97.451,
    "RA_OF_ASC_NODE": 286.7437,
    "ARG_OF_PERICENTER": 328.216,
    "MEAN_ANOMALY": 31.8719,
    "EPHEMERIS_TYPE": 0,
    "CLASSIFICATION_TYPE": "U",
    "NORAD_CAT_ID": 58662,
    "ELEMENT_SET_NO": 999,
    "REV_AT_EPOCH": 13740,
    "BSTAR": 0.000243,
    "MEAN_MOTION_DOT": 0.0000819,
    "MEAN_MOTION_DDOT": 0
   }
  },
  {
   "norad": 58663,
   "name": "TIANMU-1 22",
   "intl": "2023-208D",
   "group": "weather",
   "gcat": {
    "class": "B",
    "category": "MET",
    "owner": "TIANMU",
    "state": "CN"
   },
   "omm": {
    "OBJECT_NAME": "TIANMU-1 22",
    "OBJECT_ID": "2023-208D",
    "EPOCH": "2026-06-16T05:21:15.406272",
    "MEAN_MOTION": 15.31046882,
    "ECCENTRICITY": 0.0003325,
    "INCLINATION": 97.4506,
    "RA_OF_ASC_NODE": 283.4543,
    "ARG_OF_PERICENTER": 7.6968,
    "MEAN_ANOMALY": 352.4323,
    "EPHEMERIS_TYPE": 0,
    "CLASSIFICATION_TYPE": "U",
    "NORAD_CAT_ID": 58663,
    "ELEMENT_SET_NO": 999,
    "REV_AT_EPOCH": 13718,
    "BSTAR": 0.00020779,
    "MEAN_MOTION_DOT": 0.00006155,
    "MEAN_MOTION_DDOT": 0
   }
  },
  {
   "norad": 58297,
   "name": "UMBRA-07",
   "intl": "2023-174AT",
   "group": "sar",
   "gcat": {
    "class": "B",
    "category": "IMG-R",
    "owner": "UMBRA",
    "state": "US"
   },
   "omm": {
    "OBJECT_NAME": "UMBRA-07",
    "OBJECT_ID": "2023-174AT",
    "EPOCH": "2026-06-16T02:39:54.116064",
    "MEAN_MOTION": 15.09114917,
    "ECCENTRICITY": 0.0004431,
    "INCLINATION": 97.3787,
    "RA_OF_ASC_NODE": 222.9137,
    "ARG_OF_PERICENTER": 91.0453,
    "MEAN_ANOMALY": 269.1284,
    "EPHEMERIS_TYPE": 0,
    "CLASSIFICATION_TYPE": "U",
    "NORAD_CAT_ID": 58297,
    "ELEMENT_SET_NO": 999,
    "REV_AT_EPOCH": 14325,
    "BSTAR": 0.00054128,
    "MEAN_MOTION_DOT": 0.00008529,
    "MEAN_MOTION_DDOT": 0
   }
  }
 ]
}
