UMBRA-07                
1 58297U 23174AT  26167.11104301  .00008529  00000+0  54128-3 0  9997
2 58297  97.3787 222.9137 0004431  91.0453 269.1284 15.09114917143259
TIANMU-1 14             
1 58648U 23205D   26167.18926941  .00004859  00000+0  18685-3 0  9991
2 58648  97.3392 187.9727 0006996 349.4406  10.6685 15.26850007137356
TIANMU-1 19             
1 58660U 23208A   26167.17627848  .00006767  00000+0  22458-3 0  9994
2 58660  97.4509 283.4704 0003903 332.7564  27.3472 15.31561388137179
TIANMU-1 20             
1 58661U 23208B   26167.21485906  .00006676  00000+0  21350-3 0  9996
2 58661  97.4452 284.1436 0006111 338.0660  22.0320 15.32752498137277
TIANMU-1 21             
1 58662U 23208C   26167.13947926  .00008190  00000+0  24300-3 0  9994
2 58662  97.4510 286.7437 0006027 328.2160  31.8719 15.35061665137401
TIANMU-1 22             
1 58663U 23208D   26167.22309498  .00006155  00000+0  20779-3 0  9996
2 58663  97.4506 283.4543 0003325   7.6968 352.4323 15.31046882137189
TIANMU-1 15             
1 58700U 24004A   26167.18122389  .00004805  00000+0  18399-3 0  9995
2 58700  97.4662 353.3712 0006819   5.9769 354.1549 15.27015263135620
TIANMU-1 16             
1 58701U 24004B   26167.17027934  .00004715  00000+0  18211-3 0  9998
2 58701  97.4608 352.5983 0005948  11.2955 348.8416 15.26740073135627
TIANMU-1 17             
1 58702U 24004C   26167.22127328  .00004543  00000+0  17558-3 0  9995
2 58702  97.4637 353.1338 0005630  17.6363 342.5070 15.26739513135626
TIANMU-1 18             
1 58703U 24004D   26167.19782608  .00004551  00000+0  17458-3 0  9998
2 58703  97.4655 353.3652 0004140  18.7357 341.4033 15.26997033135628
